{"type":"FeatureCollection","features":[{"type":"Feature","id":13,"geometry":{"type":"Point","coordinates":[-67.0263890001522,-23.2375000002248]},"properties":{"FID":13,"IDUSCO":19001000013,"NAM":"Jama","ZVF":"Jama","ACC_LBL":"Aproximada","ZCH_LBL":"Informacian no disponible","ZPP_LBL":"ARG","ZTS_LBL":"Terrestre","OBS":"Oficial - Validada"}},{"type":"Feature","id":14,"geometry":{"type":"Point","coordinates":[-67.2500000003997,-23.8333330002178]},"properties":{"FID":14,"IDUSCO":19001000014,"NAM":"Sico","ZVF":"Abra las Barrancas","ACC_LBL":"Aproximada","ZCH_LBL":"Informacian no disponible","ZPP_LBL":"ARG","ZTS_LBL":"Terrestre","OBS":"Oficial - Validada"}},{"type":"Feature","id":547,"geometry":{"type":"Point","coordinates":[-62.517042239108,-22.3738977218024]},"properties":{"FID":547,"IDUSCO":19008000049,"NAM":"Pozo Hondo","ZVF":"Informacion no disponible","ACC_LBL":"Exacta","ZCH_LBL":"Informacion no disponible","ZPP_LBL":"PRY","ZTS_LBL":"Terrestre","OBS":"Oficial - Validada"}},{"type":"Feature","id":551,"geometry":{"type":"Point","coordinates":[-57.9116805406244,-21.6818460420611]},"properties":{"FID":551,"IDUSCO":19008000053,"NAM":"Puerto Carmelo Peralta","ZVF":"Informacirn no disponible","ACC_LBL":"Exacta","ZCH_LBL":"Informacirn no disponible","ZPP_LBL":"PRY","ZTS_LBL":"Fluvial","OBS":"Oficial - Validada"}}]}